NORAD_CAT_ID,OBJECT_NAME,OBJECT_TYPE,EPOCH,MEAN_MOTION,ECCENTRICITY,INCLINATION,RA_OF_ASC_NODE,ARG_OF_PERICENTER,MEAN_ANOMALY,BSTAR,MEAN_MOTION_DOT,MEAN_MOTION_DDOT,TLE_LINE0,TLE_LINE1,TLE_LINE2,SEMIMAJOR_AXIS,PERIOD,APOGEE,PERIGEE,DECAYED
49146.0,STARLINK-3116,PAYLOAD,2024-01-22 10:51:29,14.98329493,0.0002676,70.0,74.1541,263.9788,96.1066,4.9884e-05,5.02e-06,0.0,0 STARLINK-3116,1 49146U 21082S   24022.45242909  .00000502  00000-0  49884-4 0  9996,2 49146  70.0000  74.1541 0002676 263.9788  96.1066 14.98329493131217,6950.194,96.107,573.919,570.2,0.0
49146.0,STARLINK-3116,PAYLOAD,2024-01-22 12:27:37,14.98329892,0.0002669,70.0,73.9858,263.7666,96.319,5.3502e-05,5.45e-06,0.0,0 STARLINK-3116,1 49146U 21082S   24022.51918871  .00000545  00000-0  53502-4 0  9990,2 49146  70.0000  73.9858 0002669 263.7666  96.3190 14.98329892131213,6950.193,96.107,573.913,570.203,0.0
49146.0,STARLINK-3116,PAYLOAD,2024-01-23 06:05:06,14.98331037,0.0002626,70.0,72.1343,261.3773,98.7089,3.6137e-05,3.38e-06,0.0,0 STARLINK-3116,1 49146U 21082S   24023.25354799  .00000338  00000-0  36137-4 0  9990,2 49146  70.0000  72.1343 0002626 261.3773  98.7089 14.98331037131328,6950.19,96.107,573.88,570.23,0.0
49146.0,STARLINK-3116,PAYLOAD,2024-01-23 10:53:30,14.98331443,0.0002603,70.0,71.6294,260.3998,99.6867,4.1296e-05,4e-06,0.0,0 STARLINK-3116,1 49146U 21082S   24023.45382740  .00000400  00000-0  41296-4 0  9991,2 49146  70.0000  71.6294 0002603 260.3998  99.6867 14.98331443131369,6950.188,96.107,573.863,570.244,0.0
49146.0,STARLINK-3116,PAYLOAD,2024-01-23 12:29:38,14.98331854,0.0002604,70.0,71.4611,260.9025,99.1839,4.5065e-05,4.45e-06,0.0,0 STARLINK-3116,1 49146U 21082S   24023.52058710  .00000445  00000-0  45065-4 0  9993,2 49146  70.0000  71.4611 0002604 260.9025  99.1839 14.98331854131368,6950.187,96.107,573.862,570.242,0.0
49146.0,STARLINK-3116,PAYLOAD,2024-01-24 10:55:32,14.98325486,0.0002559,70.0005,69.1057,249.2702,110.8183,-2.9299e-05,-4.42e-06,0.0,0 STARLINK-3116,1 49146U 21082S   24024.45523315 -.00000442  00000-0 -29299-4 0  9994,2 49146  70.0005  69.1057 0002559 249.2702 110.8183 14.98325486131516,6950.207,96.107,573.85,570.293,0.0
49146.0,STARLINK-3116,PAYLOAD,2024-01-24 12:31:40,14.98325362,0.0002559,70.0004,68.9372,251.0105,109.0777,-3.0855e-05,-4.61e-06,0.0,0 STARLINK-3116,1 49146U 21082S   24024.52199356 -.00000461  00000-0 -30855-4 0  9997,2 49146  70.0004  68.9372 0002559 251.0105 109.0777 14.98325362131512,6950.207,96.107,573.851,570.294,0.0
49146.0,STARLINK-3116,PAYLOAD,2024-01-25 02:56:52,14.98334057,0.000267,69.9999,67.4215,258.2078,101.8781,3.1713e-05,2.85e-06,0.0,0 STARLINK-3116,1 49146U 21082S   24025.12282639  .00000285  00000-0  31713-4 0  9997,2 49146  69.9999  67.4215 0002670 258.2078 101.8781 14.98334057131611,6950.18,96.107,573.901,570.19,0.0
49146.0,STARLINK-3116,PAYLOAD,2024-01-25 12:33:40,14.98332459,0.0002704,69.9998,66.4114,260.1661,99.9192,1.1431e-05,4.3e-07,0.0,0 STARLINK-3116,1 49146U 21082S   24025.52338745  .00000043  00000-0  11431-4 0  9998,2 49146  69.9998  66.4114 0002704 260.1661  99.9192 14.98332459131667,6950.185,96.107,573.93,570.171,0.0
49146.0,STARLINK-3116,PAYLOAD,2024-01-26 02:58:53,14.98329766,0.000284,69.9995,64.8964,260.6121,99.4717,5.399e-05,5.51e-06,0.0,0 STARLINK-3116,1 49146U 21082S   24026.12422740  .00000551  00000-0  53990-4 0  9994,2 49146  69.9995  64.8964 0002840 260.6121  99.4717 14.98329766131762,6950.194,96.107,574.032,570.085,0.0
49146.0,STARLINK-3116,PAYLOAD,2024-01-26 12:35:41,14.9833164,0.0002805,69.9995,63.8862,260.5578,99.5264,7.1602e-05,7.61e-06,0.0,0 STARLINK-3116,1 49146U 21082S   24026.52478573  .00000761  00000-0  71602-4 0  9996,2 49146  69.9995  63.8862 0002805 260.5578  99.5264 14.98331640131812,6950.188,96.107,574.002,570.103,0.0
49146.0,STARLINK-3116,PAYLOAD,2024-01-27 03:00:54,14.98330644,0.0002618,69.9999,62.371,261.5629,98.5234,1.5378e-05,9.1e-07,0.0,0 STARLINK-3116,1 49146U 21082S   24027.12562761  .00000091  00000-0  15378-4 0  9990,2 49146  69.9999  62.3710 0002618 261.5629  98.5234 14.98330644131912,6950.191,96.107,573.875,570.236,0.0
49146.0,STARLINK-3116,PAYLOAD,2024-01-27 12:37:42,14.98329841,0.0002645,69.9999,61.3611,263.6765,96.4093,2.9053e-06,-5.8e-07,0.0,0 STARLINK-3116,1 49146U 21082S   24027.52618855 -.00000058  00000-0  29053-5 0  9990,2 49146  69.9999  61.3611 0002645 263.6765  96.4093 14.98329841131967,6950.193,96.107,573.897,570.22,0.0
49146.0,STARLINK-3116,PAYLOAD,2024-01-28 04:39:03,14.9832852,0.0002684,69.9997,59.6772,263.3115,96.7738,-2.7487e-05,-4.21e-06,0.0,0 STARLINK-3116,1 49146U 21082S   24028.19378948 -.00000421  00000-0 -27487-4 0  9993,2 49146  69.9997  59.6772 0002684 263.3115  96.7738 14.98328520132077,6950.197,96.107,573.928,570.197,0.0
49146.0,STARLINK-3116,PAYLOAD,2024-01-28 11:03:35,14.98328355,0.0002685,69.9998,59.0039,264.05,96.0353,-2.671e-05,-4.12e-06,0.0,0 STARLINK-3116,1 49146U 21082S   24028.46082990 -.00000412  00000-0 -26710-4 0  9990,2 49146  69.9998  59.0039 0002685 264.0500  96.0353 14.98328355132101,6950.198,96.107,573.929,570.197,0.0
49146.0,STARLINK-3116,PAYLOAD,2024-01-29 11:05:36,14.98333419,0.0002854,69.9994,56.4783,269.5009,90.5823,5.2819e-05,5.37e-06,0.0,0 STARLINK-3116,1 49146U 21082S   24029.46222380  .00000537  00000-0  52819-4 0  9995,2 49146  69.9994  56.4783 0002854 269.5009  90.5823 14.98333419132261,6950.182,96.107,574.031,570.064,0.0
49146.0,STARLINK-3116,PAYLOAD,2024-01-30 04:43:05,14.98325497,0.0002826,69.9994,54.6264,267.2199,92.8637,3.3225e-06,-5.3e-07,0.0,0 STARLINK-3116,1 49146U 21082S   24030.19659013 -.00000053  00000-0  33225-5 0  9999,2 49146  69.9994  54.6264 0002826 267.2199  92.8637 14.98325497132376,6950.207,96.107,574.036,570.108,0.0
49146.0,STARLINK-3116,PAYLOAD,2024-01-30 11:07:37,14.9832409,0.0002853,69.9996,53.9533,267.7642,92.319,-1.3944e-05,-2.59e-06,0.0,0 STARLINK-3116,1 49146U 21082S   24030.46363232 -.00000259  00000-0 -13944-4 0  9998,2 49146  69.9996  53.9533 0002853 267.7642  92.3190 14.98324090132408,6950.211,96.107,574.059,570.093,0.0
49146.0,STARLINK-3116,PAYLOAD,2024-01-31 03:08:57,14.98331287,0.0002912,69.9997,52.2706,265.5699,94.5127,2.9295e-05,2.57e-06,0.0,0 STARLINK-3116,1 49146U 21082S   24031.13122621  .00000257  00000-0  29295-4 0  9990,2 49146  69.9997  52.2706 0002912 265.5699  94.5127 14.98331287132519,6950.189,96.107,574.078,570.03,0.0
49146.0,STARLINK-3116,PAYLOAD,2024-01-31 11:09:37,14.98334391,0.0002904,69.9996,51.4288,265.6848,94.398,5.4283e-05,5.55e-06,0.0,0 STARLINK-3116,1 49146U 21082S   24031.46502310  .00000555  00000-0  54283-4 0  9999,2 49146  69.9996  51.4288 0002904 265.6848  94.3980 14.98334391132550,6950.179,96.107,574.063,570.026,0.0
49146.0,STARLINK-3116,PAYLOAD,2024-02-01 03:10:58,14.98327779,0.000292,69.9997,49.7461,264.4179,95.6647,5.7295e-05,5.91e-06,0.0,0 STARLINK-3116,1 49146U 21082S   24032.13262623  .00000591  00000-0  57295-4 0  9990,2 49146  69.9997  49.7461 0002920 264.4179  95.6647 14.98327779132664,6950.2,96.107,574.094,570.035,0.0
49146.0,STARLINK-3116,PAYLOAD,2024-02-01 11:11:39,14.98327229,0.0002943,69.9996,48.904,265.5993,94.483,4.3985e-05,4.32e-06,0.0,0 STARLINK-3116,1 49146U 21082S   24032.46642737  .00000432  00000-0  43985-4 0  9999,2 49146  69.9996  48.9040 0002943 265.5993  94.4830 14.98327229132704,6950.201,96.107,574.112,570.021,0.0
49146.0,STARLINK-3116,PAYLOAD,2024-02-02 03:12:59,14.98331837,0.0002913,69.9996,47.2199,268.8356,91.2469,-8.8877e-06,-1.99e-06,0.0,0 STARLINK-3116,1 49146U 21082S   24033.13402598 -.00000199  00000-0 -88877-5 0  9995,2 49146  69.9996  47.2199 0002913 268.8356  91.2469 14.98331837132812,6950.187,96.107,574.077,570.028,0.0
49146.0,STARLINK-3116,PAYLOAD,2024-02-02 11:13:40,14.98333043,0.0002883,69.9996,46.3783,268.2883,91.7946,7.5484e-06,-3e-08,0.0,0 STARLINK-3116,1 49146U 21082S   24033.46782423 -.00000003  00000-0  75484-5 0  9992,2 49146  69.9996  46.3783 0002883 268.2883  91.7946 14.98333043132856,6950.183,96.107,574.052,570.045,0.0
49146.0,STARLINK-3116,PAYLOAD,2024-02-03 03:15:00,14.98327562,0.0002851,69.9997,44.6949,268.2479,91.8353,9.4204e-06,1.9e-07,0.0,0 STARLINK-3116,1 49146U 21082S   24034.13542698  .00000019  00000-0  94204-5 0  9992,2 49146  69.9997  44.6949 0002851 268.2479  91.8353 14.98327562132962,6950.2,96.107,574.047,570.084,0.0
49146.0,STARLINK-3116,PAYLOAD,2024-02-03 11:15:41,14.98328257,0.0002838,69.9996,43.8531,266.1432,93.9402,1.7511e-05,1.16e-06,0.0,0 STARLINK-3116,1 49146U 21082S   24034.46922671  .00000116  00000-0  17511-4 0  9994,2 49146  69.9996  43.8531 0002838 266.1432  93.9402 14.98328257133006,6950.198,96.107,574.036,570.091,0.0
49146.0,STARLINK-3116,PAYLOAD,2024-02-04 03:17:01,14.98332814,0.0002858,69.9996,42.1698,265.5855,94.4978,3.5401e-05,3.29e-06,0.0,0 STARLINK-3116,1 49146U 21082S   24035.13682250  .00000329  00000-0  35401-4 0  9999,2 49146  69.9996  42.1698 0002858 265.5855  94.4978 14.98332814133116,6950.184,96.107,574.036,570.063,0.0
49146.0,STARLINK-3116,PAYLOAD,2024-02-04 09:41:33,14.98333891,0.0002833,69.9997,41.4965,265.0651,95.0185,4.8249e-05,4.83e-06,0.0,0 STARLINK-3116,1 49146U 21082S   24035.40386116  .00000483  00000-0  48249-4 0  9996,2 49146  69.9997  41.4965 0002833 265.0651  95.0185 14.98333891133144,6950.181,96.107,574.015,570.077,0.0
49146.0,STARLINK-3116,PAYLOAD,2024-02-05 03:19:02,14.98327032,0.0002796,69.9998,39.6452,263.7289,96.3552,9.1146e-06,1.6e-07,0.0,0 STARLINK-3116,1 49146U 21082S   24036.13822598  .00000016  00000-0  91146-5 0  9993,2 49146  69.9998  39.6452 0002796 263.7289  96.3552 14.98327032133260,6950.202,96.107,574.01,570.124,0.0
49146.0,STARLINK-3116,PAYLOAD,2024-02-05 09:43:35,14.98327249,0.0002883,69.9998,38.9716,268.6702,91.4127,5.8441e-06,-2.3e-07,0.0,0 STARLINK-3116,1 49146U 21082S   24036.40526673 -.00000023  00000-0  58441-5 0  9998,2 49146  69.9998  38.9716 0002883 268.6702  91.4127 14.98327249133293,6950.201,96.107,574.07,570.063,0.0
